{
  "type": "FeatureCollection",
  "features": [
    {
      "type": "Feature",
      "properties": {
        "norad_id": 34721,
        "name": "COSMOS 2251 DEB",
        "group": "cosmos-2251-debris",
        "lat": -73.77357208683124,
        "lon": -117.10010773968726,
        "alt_km": 752.894240291088,
        "timestamp": "2025-12-04T10:51:50.500960+00:00",
        "meta_object_name": "COSMOS 2251 DEB",
        "meta_object_id": "1993-036YP",
        "meta_epoch": "2025-12-03T18:59:35.690784",
        "meta_mean_motion": 13.96776355,
        "meta_eccentricity": 0.02239774,
        "meta_inclination": 73.9228,
        "meta_ra_of_asc_node": 341.7745,
        "meta_arg_of_pericenter": 282.3054,
        "meta_mean_anomaly": 262.1948,
        "meta_ephemeris_type": 0,
        "meta_classification_type": "U",
        "meta_norad_cat_id": 34721,
        "meta_element_set_no": 999,
        "meta_rev_at_epoch": 85024,
        "meta_bstar": 0.002612765,
        "meta_mean_motion_dot": 4.461e-05,
        "meta_mean_motion_ddot": 0,
        "tle_line1": "1 34721U 93036YP  25337.79138531  .00004461  00000+0  26128-2 0  9990",
        "tle_line2": "2 34721  73.9228 341.7745 0223977 282.3054 262.1948 13.96776355850248"
      },
      "geometry": {
        "type": "Point",
        "coordinates": [
          -117.10010773968726,
          -73.77357208683124
        ]
      }
    },
    {
      "type": "Feature",
      "properties": {
        "norad_id": 34722,
        "name": "COSMOS 2251 DEB",
        "group": "cosmos-2251-debris",
        "lat": 43.333291768116645,
        "lon": 6.69275925024991,
        "alt_km": 921.9780976864522,
        "timestamp": "2025-12-04T10:51:50.500970+00:00",
        "meta_object_name": "COSMOS 2251 DEB",
        "meta_object_id": "1993-036YQ",
        "meta_epoch": "2025-12-03T11:34:07.843008",
        "meta_mean_motion": 14.11883705,
        "meta_eccentricity": 0.01674949,
        "meta_inclination": 73.8718,
        "meta_ra_of_asc_node": 352.5809,
        "meta_arg_of_pericenter": 279.7285,
        "meta_mean_anomaly": 232.8069,
        "meta_ephemeris_type": 0,
        "meta_classification_type": "U",
        "meta_norad_cat_id": 34722,
        "meta_element_set_no": 999,
        "meta_rev_at_epoch": 86114,
        "meta_bstar": 0.0011687906,
        "meta_mean_motion_dot": 2.41e-05,
        "meta_mean_motion_ddot": 0,
        "tle_line1": "1 34722U 93036YQ  25337.48203522  .00002410  00000+0  11688-2 0  9997",
        "tle_line2": "2 34722  73.8718 352.5809 0167494 279.7285 232.8069 14.11883705861145"
      },
      "geometry": {
        "type": "Point",
        "coordinates": [
          6.69275925024991,
          43.333291768116645
        ]
      }
    },
    {
      "type": "Feature",
      "properties": {
        "norad_id": 34726,
        "name": "COSMOS 2251 DEB",
        "group": "cosmos-2251-debris",
        "lat": 73.27134562730355,
        "lon": 109.80079652448941,
        "alt_km": 672.7249282689118,
        "timestamp": "2025-12-04T10:51:50.500981+00:00",
        "meta_object_name": "COSMOS 2251 DEB",
        "meta_object_id": "1993-036YU",
        "meta_epoch": "2025-12-03T19:37:22.774944",
        "meta_mean_motion": 14.59428841,
        "meta_eccentricity": 0.0042453,
        "meta_inclination": 74.0292,
        "meta_ra_of_asc_node": 3.3438,
        "meta_arg_of_pericenter": 156.8323,
        "meta_mean_anomaly": 203.4769,
        "meta_ephemeris_type": 0,
        "meta_classification_type": "U",
        "meta_norad_cat_id": 34726,
        "meta_element_set_no": 999,
        "meta_rev_at_epoch": 88372,
        "meta_bstar": 0.00077573,
        "meta_mean_motion_dot": 3.695e-05,
        "meta_mean_motion_ddot": 0,
        "tle_line1": "1 34726U 93036YU  25337.81762471  .00003695  00000+0  77573-3 0  9993",
        "tle_line2": "2 34726  74.0292   3.3438 0042453 156.8323 203.4769 14.59428841883720"
      },
      "geometry": {
        "type": "Point",
        "coordinates": [
          109.80079652448941,
          73.27134562730355
        ]
      }
    },
    {
      "type": "Feature",
      "properties": {
        "norad_id": 34728,
        "name": "COSMOS 2251 DEB",
        "group": "cosmos-2251-debris",
        "lat": -4.511091354850137,
        "lon": -93.41905507933558,
        "alt_km": 653.293514830707,
        "timestamp": "2025-12-04T10:51:50.500991+00:00",
        "meta_object_name": "COSMOS 2251 DEB",
        "meta_object_id": "1993-036YW",
        "meta_epoch": "2025-12-03T02:14:02.628672",
        "meta_mean_motion": 14.70683723,
        "meta_eccentricity": 0.0040693,
        "meta_inclination": 74.0187,
        "meta_ra_of_asc_node": 270.5171,
        "meta_arg_of_pericenter": 70.8224,
        "meta_mean_anomaly": 289.7344,
        "meta_ephemeris_type": 0,
        "meta_classification_type": "U",
        "meta_norad_cat_id": 34728,
        "meta_element_set_no": 999,
        "meta_rev_at_epoch": 88658,
        "meta_bstar": 0.0010464414,
        "meta_mean_motion_dot": 6.43e-05,
        "meta_mean_motion_ddot": 0,
        "tle_line1": "1 34728U 93036YW  25337.09308598  .00006430  00000+0  10464-2 0  9996",
        "tle_line2": "2 34728  74.0187 270.5171 0040693  70.8224 289.7344 14.70683723886584"
      },
      "geometry": {
        "type": "Point",
        "coordinates": [
          -93.41905507933558,
          -4.511091354850137
        ]
      }
    },
    {
      "type": "Feature",
      "properties": {
        "norad_id": 34729,
        "name": "COSMOS 2251 DEB",
        "group": "cosmos-2251-debris",
        "lat": 15.82610808606818,
        "lon": 19.501713536370627,
        "alt_km": 626.7950507240266,
        "timestamp": "2025-12-04T10:51:50.501002+00:00",
        "meta_object_name": "COSMOS 2251 DEB",
        "meta_object_id": "1993-036YX",
        "meta_epoch": "2025-12-03T10:46:25.403232",
        "meta_mean_motion": 14.82363711,
        "meta_eccentricity": 0.0012244,
        "meta_inclination": 74.0191,
        "meta_ra_of_asc_node": 16.8279,
        "meta_arg_of_pericenter": 141.7348,
        "meta_mean_anomaly": 280.5603,
        "meta_ephemeris_type": 0,
        "meta_classification_type": "U",
        "meta_norad_cat_id": 34729,
        "meta_element_set_no": 999,
        "meta_rev_at_epoch": 88320,
        "meta_bstar": 0.0023674397,
        "meta_mean_motion_dot": 0.00018995,
        "meta_mean_motion_ddot": 0,
        "tle_line1": "1 34729U 93036YX  25337.44890513  .00018995  00000+0  23674-2 0  9995",
        "tle_line2": "2 34729  74.0191  16.8279 0012244 141.7348 280.5603 14.82363711883204"
      },
      "geometry": {
        "type": "Point",
        "coordinates": [
          19.501713536370627,
          15.82610808606818
        ]
      }
    },
    {
      "type": "Feature",
      "properties": {
        "norad_id": 34732,
        "name": "COSMOS 2251 DEB",
        "group": "cosmos-2251-debris",
        "lat": -33.8062788594145,
        "lon": -60.284284876969124,
        "alt_km": 720.2556267094806,
        "timestamp": "2025-12-04T10:51:50.501012+00:00",
        "meta_object_name": "COSMOS 2251 DEB",
        "meta_object_id": "1993-036ZA",
        "meta_epoch": "2025-12-03T15:43:00.146784",
        "meta_mean_motion": 14.47282993,
        "meta_eccentricity": 0.00404937,
        "meta_inclination": 74.0445,
        "meta_ra_of_asc_node": 110.1617,
        "meta_arg_of_pericenter": 262.8442,
        "meta_mean_anomaly": 117.6975,
        "meta_ephemeris_type": 0,
        "meta_classification_type": "U",
        "meta_norad_cat_id": 34732,
        "meta_element_set_no": 999,
        "meta_rev_at_epoch": 88012,
        "meta_bstar": 0.0002384475,
        "meta_mean_motion_dot": 8.53e-06,
        "meta_mean_motion_ddot": 0,
        "tle_line1": "1 34732U 93036ZA  25337.65486281  .00000853  00000+0  23845-3 0  9990",
        "tle_line2": "2 34732  74.0445 110.1617 0040493 262.8442 117.6975 14.47282993880124"
      },
      "geometry": {
        "type": "Point",
        "coordinates": [
          -60.284284876969124,
          -33.8062788594145
        ]
      }
    },
    {
      "type": "Feature",
      "properties": {
        "norad_id": 34736,
        "name": "COSMOS 2251 DEB",
        "group": "cosmos-2251-debris",
        "lat": -10.86691485943349,
        "lon": 51.12021836206099,
        "alt_km": 440.2594482766017,
        "timestamp": "2025-12-04T10:51:50.501022+00:00",
        "meta_object_name": "COSMOS 2251 DEB",
        "meta_object_id": "1993-036ZE",
        "meta_epoch": "2025-12-03T16:11:50.972064",
        "meta_mean_motion": 15.39194494,
        "meta_eccentricity": 0.00152421,
        "meta_inclination": 74.0049,
        "meta_ra_of_asc_node": 55.9589,
        "meta_arg_of_pericenter": 354.5499,
        "meta_mean_anomaly": 5.554,
        "meta_ephemeris_type": 0,
        "meta_classification_type": "U",
        "meta_norad_cat_id": 34736,
        "meta_element_set_no": 999,
        "meta_rev_at_epoch": 88308,
        "meta_bstar": 0.010490238,
        "meta_mean_motion_dot": 0.00432972,
        "meta_mean_motion_ddot": 0,
        "tle_line1": "1 34736U 93036ZE  25337.67489551  .00432972  00000+0  10490-1 0  9990",
        "tle_line2": "2 34736  74.0049  55.9589 0015242 354.5499   5.5540 15.39194494883088"
      },
      "geometry": {
        "type": "Point",
        "coordinates": [
          51.12021836206099,
          -10.86691485943349
        ]
      }
    }
  ]
}